ONEWEB-0160             
1 48060U 21025U   23332.56339106  .00000276  00000+0  72003-3 0  9993
2 48060  87.8976 145.6342 0001014  48.8468 311.2749 13.13567903131262
ONEWEB-0163             
1 48061U 21025V   23332.47264173  .00000348  00000+0  91710-3 0  9991
2 48061  87.8983 145.6472 0001777  97.8946 262.2385 13.13470767131370
ONEWEB-0159             
1 48062U 21025W   23332.53799459  .00000154  00000+0  38675-3 0  9995
2 48062  87.8982 145.6200 0001800  87.0252 273.1083 13.13569555131300
ONEWEB-0164             
1 48063U 21025X   23332.51962962 -.00000122  00000+0 -36965-3 0  9992
2 48063  87.8981 145.6320 0001801 110.6420 249.4902 13.13267927131285
ONEWEB-0167             
1 48064U 21025Y   23332.85446297  .00000224  00000+0  57848-3 0  9992
2 48064  87.8984 145.5753 0001645  95.8852 264.2465 13.13515393131313
ONEWEB-0166             
1 48065U 21025Z   23332.49546388  .00000213  00000+0  54636-3 0  9995
2 48065  87.8982 145.6382 0001731  85.1415 274.9912 13.13668378131344
ONEWEB-0151             
1 48066U 21025AA  23332.57351308 -.00004764  00000+0 -13026-1 0  9994
2 48066  87.8983 145.6312 0001076  90.0534 270.0719 13.13789960131307
ONEWEB-0170             
1 48067U 21025AB  23332.58055553 -.00000164  00000+0 -48430-3 0  9998
2 48067  87.8988 145.6305 0000816  91.6490 268.4733 13.13470776131257
